{"type":"FeatureCollection","features":[{"type":"Feature","geometry":{"coordinates":[[[[2.273766503901919,48.87269707447754],[2.2735613777803696,48.87253283231597],[2.273975216184064,48.87195711837224],[2.273913824712448,48.87170332631718],[2.2738766979514176,48.87164956209255],[2.2738230933567807,48.87161354362454],[2.273736976722417,48.87158089737579],[2.2728197187832975,48.87139686468367],[2.272231052937866,48.87100853003941],[2.272187107048243,48.87101140425397],[2.2721255863440173,48.871011369214116],[2.272086097305895,48.870964965569556],[2.2719171367872724,48.87079674023756],[2.271728432488829,48.870605310948044],[2.271535341947055,48.870409531458996],[2.2713642011599626,48.870231158116255],[2.2712479094458105,48.8701122398091],[2.271019710488499,48.86988600232697],[2.2707768475829484,48.86965097921042],[2.270787167366844,48.86962207676033],[2.270952241520794,48.869548375245195],[2.2708203812930527,48.86942874645027],[2.270781530083202,48.869449815330924],[2.2706708708586762,48.86950982555345],[2.2706357239211443,48.86950545729277],[2.2705786278732716,48.86948368326874],[2.270315348625586,48.8692066942682],[2.2697975572378604,48.8686737369914],[2.2697585545758083,48.8686305461027],[2.26954088642318,48.86838950341595],[2.2692513344001872,48.86805307162599],[2.269253573121365,48.868022635097525],[2.2694228230062947,48.867964758183085],[2.269321778314161,48.86784365541366],[2.26920858045329,48.86787941766894],[2.269156505020973,48.86790028748865],[2.2691180565484763,48.86788384371764],[2.269034473056328,48.86777779811876],[2.2688605444182826,48.867544802269755],[2.2686482465668294,48.86723937807079],[2.268421850323253,48.86689928537069],[2.2682110260089647,48.86660471716998],[2.2681845696032337,48.866564688955044],[2.2681315381512297,48.86648445010809],[2.2680520492975083,48.86636418297203],[2.2679097878957757,48.866147626740116],[2.2677743016390273,48.86594152443758],[2.267638733491983,48.86579513841835],[2.2674669892229096,48.8656293233403],[2.2672658648006827,48.86543661644617],[2.267037650250342,48.86520059952204],[2.2668003960883603,48.864957111556436],[2.2666399791047716,48.86478532986767],[2.2665722459283173,48.86467779915172],[2.266583585083513,48.86466034024708],[2.266682052974882,48.864576644558],[2.2667757772678065,48.864530976754324],[2.267184825530645,48.864323367993606],[2.267286050603813,48.86426905346293],[2.267357195660771,48.864234560824876],[2.267253632471437,48.86415226010527],[2.26706127287681,48.86400342993889],[2.2670608839167223,48.86400326927058],[2.267043385299438,48.864009180578606],[2.266892955465784,48.86397281207201],[2.2666898419604404,48.863885799034826],[2.26652899329601,48.86380632045005],[2.2664120225857554,48.86373974113241],[2.2663178044211674,48.863681757805985],[2.266233337978868,48.86362592518911],[2.2661034008386,48.86353359219204],[2.265947501091307,48.86340369925719],[2.2658514062149298,48.863310564456185],[2.26569107379884,48.86320724776508],[2.265528701586089,48.86311020481535],[2.2654870637098745,48.863033066147416],[2.265442196849939,48.86288873124056],[2.2654005967760393,48.86278515262566],[2.265321862384516,48.86258352319046],[2.265291931683113,48.86249757784946],[2.2652461151230936,48.86238141196127],[2.2651869446595665,48.86230157534488],[2.2651676733272,48.862275573572106],[2.2650976455504126,48.86218108718869],[2.2651321975464893,48.86193889519552],[2.265159920054338,48.86168917586829],[2.265146551408839,48.86147403442144],[2.265114419704647,48.86132976388438],[2.2651077359266334,48.86129975809613],[2.26509414804764,48.86123874687771],[2.2650082885617833,48.86103333545309],[2.264323821880632,48.859971460934766],[2.264310310355194,48.85995049929305],[2.264130466815182,48.859671483117666],[2.2638663690098815,48.859261744708895],[2.2635664480396214,48.85879642059645],[2.2635511912567092,48.858772749128526],[2.2628821908368235,48.857734769553055],[2.262767919817452,48.857545727179655],[2.2626941368951123,48.857403561427276],[2.2626814793205297,48.857379173750246],[2.262639834303378,48.8572780233929],[2.2626152241643047,48.85717279686151],[2.2626052218582147,48.8570875361834],[2.2625933543928403,48.857004345122355],[2.262578210213916,48.856923576522206],[2.262550116525277,48.856846670903415],[2.2624983655204294,48.856732068490544],[2.2622118582598514,48.85628501559161],[2.262110652387784,48.85615044888893],[2.261560978483014,48.85526938067397],[2.2605606915298475,48.85370844571513],[2.260533203384725,48.85366554891746],[2.2597988347854145,48.85251950670612],[2.2597572324572135,48.85245458238161],[2.258647419781619,48.85072251672737],[2.258624682252164,48.85068702988338],[2.2582503395084785,48.85010276982236],[2.2580698068138534,48.84978616906164],[2.2579418686803545,48.8495190858824],[2.257891845096343,48.84940191464319],[2.2578202797448905,48.84923428838384],[2.2578043741931992,48.84919703328446],[2.257731100350713,48.84866146533573],[2.2573729697734692,48.84842902111327],[2.25722773062506,48.84789346890396],[2.253459025840536,48.84794443915132],[2.252789231008399,48.847953485738806],[2.2513144052680025,48.847973391687965],[2.251294825532181,48.847948647153665],[2.2512498325926984,48.847885576178534],[2.2512098861189886,48.84782097276496],[2.2511759344144817,48.84775494088439],[2.251147980350836,48.8476876586348],[2.2511268405726534,48.847619477388896],[2.2511107463627327,48.84755057944316],[2.251131829324673,48.8471773951075],[2.2511460677135053,48.84682219206185],[2.251134458619085,48.8466806351126],[2.2511124909418947,48.846539614081706],[2.251081257909505,48.84639929949195],[2.2510651437388716,48.846341018395734],[2.251010084696558,48.84619007694705],[2.250875143328681,48.845904726282754],[2.250791053058626,48.84576122683847],[2.250700464029226,48.84562545267288],[2.2506966917291664,48.84561979808874],[2.2506816273389765,48.84562019029478],[2.2505581811020057,48.84565175659473],[2.2504437477710346,48.84568102018875],[2.25037912459609,48.84569762147484],[2.2503281867451888,48.845710707405225],[2.25031445896014,48.8457142350511],[2.2503010280404023,48.845693432093725],[2.2499979945739326,48.84575758248209],[2.2476384046044777,48.84636000632395],[2.245592779197512,48.8468849431986],[2.2440443308810307,48.847298029310934],[2.2424871709502847,48.84769382899245],[2.2421421266284227,48.84802156307413],[2.240452005397043,48.84951347910031],[2.239963004512773,48.84986698488696],[2.2396226423456596,48.85001344012991],[2.2382266843533856,48.850349274525456],[2.2368353681461652,48.85064979958845],[2.235234540767614,48.851002296620564],[2.2327569318775944,48.851535253843885],[2.2303970489278386,48.85204236689793],[2.2265190134657615,48.85289325302481],[2.225271395233954,48.85316827155218],[2.224132774567339,48.853434742916946],[2.2241013480316716,48.85383178761611],[2.2240866593998256,48.854539594355614],[2.2241764421137837,48.855325193237086],[2.2245269035169186,48.85653402316634],[2.224995120550212,48.85774296761201],[2.225293963867903,48.858649614114015],[2.2256584495656035,48.85946137846694],[2.226296710199121,48.86070500468141],[2.22696564823619,48.861896868955704],[2.227252185525585,48.86248412066048],[2.2277204287815984,48.863736209368106],[2.228136618755095,48.86486740196217],[2.2283320231915122,48.86525603037888],[2.2286450524178747,48.86570519219891],[2.2293802716741675,48.86656045119635],[2.2297977884173714,48.86710466311357],[2.2306594277882725,48.86800318849599],[2.2314949555848806,48.868893059096536],[2.2321477721196272,48.869566955843375],[2.232989074622244,48.86980078922767],[2.237152191860081,48.87093529086607],[2.23974622413258,48.871559022362426],[2.240347710216401,48.871783963542015],[2.241149274283987,48.872311190696266],[2.242338237342937,48.873278965611455],[2.2435185555443735,48.87422082120323],[2.24480292017041,48.87553392426421],[2.245416942528857,48.876104136378416],[2.245691325361918,48.8763460440877],[2.250941449987762,48.87504056328012],[2.254100600422308,48.87425487322047],[2.254849648968501,48.874069397595726],[2.2551510577091562,48.874088857510856],[2.2553262778202536,48.8739671122098],[2.2558981925699118,48.87506433946457],[2.256596087230007,48.87644386255471],[2.2571291613990123,48.87754104677344],[2.2573521900370555,48.877938880071426],[2.257759365046461,48.87872167618888],[2.2582666164704173,48.879780357335434],[2.2584411753103555,48.88009476573856],[2.258635563106234,48.88016545548],[2.2589271538598856,48.88026186703997],[2.2600652030459276,48.88012152229862],[2.261615007065001,48.87993013330703],[2.2632912291278515,48.879732384018155],[2.2662805470802647,48.87935583260768],[2.2696037445388315,48.87895374414457],[2.271552250821467,48.878711140623246],[2.2730751084575695,48.878508628597814],[2.276327843519601,48.87808518083395],[2.2771837336001775,48.87797659222508],[2.27755657642898,48.87792547413876],[2.2777412254309337,48.87801536138581],[2.279389238595236,48.87780383651422],[2.2792542220073324,48.877379217207064],[2.2791754433384774,48.87731394082535],[2.279009593289657,48.877220662423404],[2.278559157195204,48.876918404030015],[2.2772611536215086,48.87616603052112],[2.276787603798732,48.875874031801786],[2.2768073171955745,48.87585895919719],[2.276727690932641,48.87580846655716],[2.276717040773442,48.87580171289496],[2.2764773723349,48.875649732505465],[2.2763562970762923,48.87552669896454],[2.2763126003629797,48.87547939465181],[2.2762823951191877,48.875446696283085],[2.2762084933891105,48.87536669355024],[2.275993312940388,48.87514173634232],[2.2757299815322494,48.87484781436606],[2.2755923414171075,48.874682645273694],[2.275363081910919,48.87441901519151],[2.2753174756347834,48.874368371323214],[2.275280422218875,48.87432722323174],[2.275082885472484,48.87410786144279],[2.2748713583918616,48.87389580623983],[2.274562835747373,48.87358999247932],[2.274390856346313,48.87338772791569],[2.2742410512719995,48.873155200530704],[2.273766503901919,48.87269707447754]],[[2.25423771039692,48.86645191510368],[2.254044502923615,48.86635609192129],[2.2537278410837756,48.86621057477986],[2.2533574737829065,48.86605793162446],[2.253079386024107,48.8659888348838],[2.2515680966043647,48.86543292736449],[2.2511278810074975,48.865297930822344],[2.250736186867947,48.86517488574589],[2.250732244343189,48.86516115939883],[2.2506530379537386,48.86512121781273],[2.2506473192858634,48.865125304647954],[2.2506357728009587,48.865125808838435],[2.2506211772661726,48.86511614831839],[2.2505410385316975,48.86513486481328],[2.2505096059404806,48.865127233011],[2.2502628095225763,48.8650734311272],[2.249961195296216,48.865001539133345],[2.249964305709599,48.86494579593784],[2.250033892135684,48.864304879508765],[2.2503842093920707,48.86424005519366],[2.250471487639691,48.864355543920745],[2.2506190365129313,48.86439533083054],[2.2507776034721148,48.86438463288494],[2.2508980836687016,48.86426569548451],[2.2510894128742445,48.86427305079181],[2.251237129504233,48.864215445925346],[2.251308340322145,48.86413254188796],[2.251308489921687,48.86404596818889],[2.251253991836986,48.863944939019056],[2.251155674595168,48.8638907555694],[2.2512487577099227,48.86381147340379],[2.251265272732767,48.863742951404284],[2.2512380684780924,48.86367079138865],[2.2511506646345953,48.86362744328298],[2.251008554670762,48.863612903566256],[2.25092650972034,48.86363088172005],[2.2508010352752343,48.86347929412675],[2.2505082860112617,48.863502608002335],[2.2501295061884816,48.86353334684267],[2.2500576962951415,48.863544730601994],[2.2500452944329865,48.86355941581281],[2.250057626941301,48.8635839213958],[2.249941184939985,48.863645892060326],[2.2499363355650335,48.86359036691889],[2.249916730662228,48.863476026751705],[2.249926681100959,48.86344500018081],[2.249973741024892,48.863431978354605],[2.2503252602906922,48.863417542749986],[2.25083853521221,48.86339016888013],[2.251228047390642,48.863356162836034],[2.251717424204861,48.863307535891465],[2.252182867036765,48.86326541712714],[2.2525923579342164,48.86324015361245],[2.2530286462148545,48.863246436280726],[2.253176930867727,48.86338210138689],[2.2533353680872725,48.86338058077715],[2.253417104293481,48.863351243785445],[2.253447903911927,48.86338606830476],[2.253828913301156,48.86358478814119],[2.2541722937139026,48.863801205357696],[2.254424450449235,48.86397502819772],[2.2546247191827913,48.86412400280782],[2.254705181353837,48.86418784636906],[2.2548444806253287,48.86440411461384],[2.2549034666119887,48.86445731354673],[2.2549194389748735,48.86454945562617],[2.2549676209677583,48.86464162913225],[2.255037199193232,48.86479405313352],[2.255090769582699,48.86487559286709],[2.2551872589024997,48.86499968910447],[2.2552943902136566,48.8651769502239],[2.2553424799669206,48.86532582450663],[2.2553619554356454,48.8654604952987],[2.2553508653994214,48.86567310364363],[2.2553129984502456,48.86583963245073],[2.25522683030977,48.8659777702603],[2.255221260844724,48.866098252535224],[2.254866404672968,48.86630707969541],[2.254495428483379,48.86651942976525],[2.25423771039692,48.86645191510368]],[[2.2506888014256448,48.87349881517733],[2.24917668014005,48.87413402112806],[2.2488509881288263,48.87427178225674],[2.248595802746849,48.87398023827282],[2.247691082080803,48.87292916433307],[2.2473548007936253,48.87249955125675],[2.2470303485633223,48.87195493700799],[2.2465319922987628,48.871172515403906],[2.24612629850774,48.87057416654095],[2.2456623759113796,48.87004477993365],[2.2449316261826446,48.86926216589356],[2.2445140550912464,48.86882480757516],[2.24364370539231,48.86813407788073],[2.2435276430655056,48.86804963981558],[2.243110224498396,48.86753561337375],[2.2426463759565083,48.867006214625135],[2.2423323449817127,48.86662556215944],[2.2422330143774514,48.86650506557356],[2.242772333309731,48.866478145562716],[2.244025216111423,48.86640801986659],[2.244091657766803,48.86636975469998],[2.2442907635567435,48.86636991574386],[2.2447216434866726,48.86666035245831],[2.2447880021160382,48.86666588312673],[2.2450199992561766,48.866830269235685],[2.2458679501677588,48.86740017972496],[2.2468484801604145,48.86807964896123],[2.247014245609239,48.868172827001715],[2.247080627048833,48.868167402409135],[2.247378960884759,48.86835920936242],[2.24737052912456,48.86843035355763],[2.247811007706311,48.868740336699894],[2.247859524743637,48.8687694298463],[2.247919416424832,48.868742660158794],[2.2481164726795115,48.86885785687417],[2.248162202087944,48.86899746090067],[2.2482470046355294,48.86903570157141],[2.2483859252298175,48.86901290398837],[2.24888424202749,48.86935940185427],[2.249342789503226,48.869660058189766],[2.249844978301858,48.87000655537248],[2.250280425100002,48.87028682950527],[2.250543757445571,48.870457541189914],[2.2507132026997,48.870630725051065],[2.2509827708833345,48.87091087254055],[2.251299847567163,48.871231774644535],[2.2515231521576777,48.87149661580472],[2.2518517833150606,48.87183279467504],[2.252346015092171,48.87235233191599],[2.252619661717996,48.87264155168608],[2.2506888014256448,48.87349881517733]]]],"type":"MultiPolygon"},"properties":{"nsq_espace_vert":10045,"nom_ev":"BOIS DE BOULOGNE","type_ev":"Bois","categorie":"Bois","adresse_numero":93,"adresse_complement":"W","adresse_typevoie":"AVENUE DE L'","adresse_libellevoie":"HIPPODROME","adresse_codepostal":"75016","poly_area":8057728,"surface_totale_reelle":null,"surface_horticole":null,"presence_cloture":"Non","perimeter":16981.15062316,"annee_ouverture":null,"annee_renovation":null,"ancien_nom_ev":null,"annee_changement_nom":null,"nb_entites":1,"ouvert_ferme":null,"id_division":8,"id_atelier_horticole":null,"ida3d_enb":"58927","site_villes":"3708","id_eqpt":"6941","competence":"CP","url_plan":"https:\/\/b22-pr-v1-iis01.ressources.paris.mdp\/MAAP.asp?object=58927","geom_x_y":{"lon":2.2497350367788065,"lat":48.86310195075372},"last_edited_user":null,"last_edited_date":null}},{"type":"Feature","geometry":{"coordinates":[[[[2.411344479132588,48.83383944025172],[2.411940429948977,48.83372456225073],[2.412352227668516,48.83367420900323],[2.4132408676550416,48.83359490296427],[2.4139019857030886,48.83357299098098],[2.414649875554104,48.83358679917906],[2.4156471836272124,48.83368628439266],[2.4166554254763164,48.83385015777545],[2.417240986502103,48.8340143130872],[2.4179241425446194,48.83421417843508],[2.4183795857145913,48.83434980553785],[2.419041137974465,48.8345782939981],[2.4199846284671933,48.83489244530382],[2.4204726514799955,48.835049506594984],[2.421372825190491,48.835377985835876],[2.421969322414579,48.83557789048399],[2.422240457218504,48.835677857752394],[2.422164852076812,48.83582817520911],[2.4219811418945425,48.836157455828435],[2.421786612846993,48.83649390295474],[2.42160297371529,48.83685895704522],[2.421516870751666,48.837223947369274],[2.421366313614321,48.83792527787499],[2.421215594100224,48.83854074602268],[2.4210539435788627,48.839098973202304],[2.4208597826700933,48.839664392968075],[2.42058970951612,48.84021554130516],[2.420351898381527,48.84061641490682],[2.4200163324739927,48.84089572356664],[2.419745824696821,48.84119644035525],[2.4195620557828583,48.841511401386164],[2.4194340848992746,48.842226805352986],[2.4194290738778164,48.84248338999004],[2.419510927257034,48.84267172034489],[2.419761344800462,48.84286890226505],[2.419837629552971,48.842967533208764],[2.4199085177049167,48.843098460783395],[2.4199305894221967,48.8432940194516],[2.419881874742613,48.84342144499925],[2.4206169111606997,48.84377142720318],[2.421379728570872,48.84414815461909],[2.422101090378179,48.84449757918407],[2.422283181901603,48.84439901789418],[2.4223907646630662,48.844327848896164],[2.422696871847894,48.844081559551476],[2.4230523471560743,48.84364383777834],[2.4232836233501462,48.843249969481434],[2.4234654846649537,48.84301469682716],[2.423754710632391,48.842604371473605],[2.4240855374090122,48.84229243910738],[2.4243999453848897,48.84206800790009],[2.4245488412432343,48.8419421299046],[2.424805589243508,48.84190365808775],[2.424747373134495,48.84177246330005],[2.425070367774682,48.841723005442816],[2.426205120761349,48.841623694853794],[2.427348152293302,48.8415243672754],[2.4277291704317254,48.84149125869261],[2.428317254357033,48.84144703868175],[2.4291869415885725,48.84136431382884],[2.4300814979520093,48.84129250691484],[2.4312410693052184,48.84118765935667],[2.432442077692042,48.84108823143057],[2.433270343528386,48.84101644590744],[2.433634773637688,48.840983331682146],[2.4336848927120043,48.8411910748024],[2.4347533552294283,48.841102672483075],[2.4359377893940652,48.84100322201299],[2.4371967431035713,48.84089275966895],[2.4372720096331135,48.84124811396252],[2.4373725495931504,48.84180577472639],[2.437531397106859,48.84252195262051],[2.437640292562786,48.843112402681264],[2.437790852616599,48.84382311999191],[2.437941461604607,48.84455570734757],[2.438918902317886,48.844483757865945],[2.4398134882262275,48.84440639767025],[2.440517537241315,48.84434013904139],[2.440584711521395,48.844766586509344],[2.44060981285865,48.84488686913243],[2.440825176297316,48.844870261215505],[2.440875576756945,48.84520377444029],[2.440701621264194,48.84521486784867],[2.4407273506379994,48.845635885997936],[2.44075262875169,48.84583271498405],[2.440761082821548,48.84591472145575],[2.441191828639017,48.84588698991825],[2.44176345454892,48.84587006256321],[2.442426241782441,48.845869450724464],[2.442915046938246,48.84586899649817],[2.443685506152522,48.84585187406054],[2.4442985625822375,48.84584036237136],[2.445060700914947,48.84580682692593],[2.4458228622393086,48.84578423094755],[2.446551835361654,48.8457452585793],[2.446492895318428,48.845313338338855],[2.446425997350607,48.84502906013744],[2.446409225622317,48.84493611899925],[2.4468399218840715,48.84489196363523],[2.4473203498745906,48.84485321585104],[2.4478836041969028,48.84480346081451],[2.448372266125147,48.84474283139023],[2.449233681487456,48.84465449430693],[2.450033525952211,48.84455531319627],[2.4507177762985486,48.84446326484124],[2.4511559425142266,48.84438161266291],[2.4516095245212477,48.84431516834724],[2.452216882183341,48.8442282611678],[2.4528549391326577,48.84412609439989],[2.4533623843095245,48.844069749379514],[2.453823670290716,48.84401344060059],[2.4541850124540283,48.84396738628755],[2.4552690735698404,48.84384444030548],[2.456499164477031,48.843690881136325],[2.457560059401162,48.843537479396325],[2.4584440883015404,48.84338426511534],[2.45907443775071,48.84328207168036],[2.4596970372074742,48.84315450515512],[2.4607039414525396,48.84294530564781],[2.461457121766255,48.84275667060547],[2.4618413491993905,48.842644586563964],[2.462087266532491,48.84257832834175],[2.4624100004881306,48.842476453302694],[2.4627557503936943,48.842354246550336],[2.4631014855103612,48.842226968172334],[2.463424165478495,48.84210478454125],[2.463746752549742,48.84195215110596],[2.4640078902747207,48.84182496389026],[2.4641922214603946,48.84173339096078],[2.4644072118603537,48.841606253370614],[2.4647067150460265,48.841443490653305],[2.464952401231737,48.84129093067399],[2.4651596633157222,48.841148576035394],[2.4656227606735794,48.84081304697894],[2.4658836231904906,48.840584335234134],[2.4662160430243665,48.840274318582864],[2.4664845056141043,48.840010067173054],[2.4666684678484927,48.839786521834455],[2.4669827762619523,48.83941054435184],[2.4671130284723466,48.83923273483921],[2.467358349524068,48.838948202028796],[2.46798209876733,48.83830791951387],[2.4685574529189465,48.837794596448134],[2.4688975340685215,48.83748456348946],[2.4692504562116024,48.83718975772491],[2.4694573923707814,48.83693571433832],[2.469743445194113,48.836461201189614],[2.4697628538264667,48.836143517220805],[2.469730712149283,48.83562581405035],[2.469668692978839,48.835432999990935],[2.469614084581958,48.835143739146865],[2.46951352972593,48.83491543981774],[2.469405183844157,48.83465669037398],[2.4693124900695853,48.83449437114436],[2.469227477904267,48.834332032842475],[2.4689960327712903,48.83403790526429],[2.4685952477083615,48.83367290362999],[2.4683769897436902,48.83352087185727],[2.4681537330408947,48.83341453819803],[2.467899706557335,48.83329808612634],[2.467591819315817,48.83317154306517],[2.4673531081317845,48.83303476587233],[2.4669373865568174,48.83283220262003],[2.4666576382308305,48.832680246938125],[2.466434269165816,48.83252821832925],[2.4662339489543306,48.83237109023652],[2.4660798473403243,48.83223929626218],[2.465898346456814,48.832078440972964],[2.465773993356877,48.831951675527094],[2.4656309644554666,48.831792188667286],[2.465487834226648,48.83158766562187],[2.4653508981784387,48.83138723696675],[2.465207555909107,48.83110493572379],[2.465070286771912,48.830773508543906],[2.465013985276729,48.83058117178333],[2.4649266860355286,48.830384777762326],[2.464845309387558,48.8300860392611],[2.4647891163842566,48.82993463726541],[2.464663882749966,48.82945582237157],[2.464607394198065,48.82918979858078],[2.4645383854794054,48.82887876303818],[2.4645063032823153,48.82845716298906],[2.464530141424313,48.82808051967509],[2.4645545448413846,48.82792493542923],[2.464609600485288,48.827634226606826],[2.4648760567211423,48.82757661779479],[2.4650867611731733,48.82753953706466],[2.465217286203127,48.82766219519867],[2.465446459847127,48.82757188297342],[2.465712830953274,48.827481519745945],[2.4661671371651086,48.82734182299132],[2.4661295799240945,48.82720268454567],[2.465674067473059,48.826081550686936],[2.4655863908489866,48.82574187570629],[2.465480207578617,48.825434973497515],[2.4654488151978318,48.82528764462846],[2.4653551027777247,48.82500937980298],[2.46514426114835,48.824989150067886],[2.4651848266980574,48.82469027394018],[2.4652217150066633,48.8245715182705],[2.465258720203028,48.82449779082839],[2.465077971781068,48.82412547710526],[2.464903232975023,48.82367947136563],[2.464784830067987,48.82344216843387],[2.464716219024567,48.82327850456632],[2.464666587684092,48.82326627672404],[2.4645358363009913,48.82304537211695],[2.4643677114680944,48.8227590057445],[2.4642120159950327,48.82248081784704],[2.463792739011336,48.82175671071633],[2.463705510245741,48.821584875380125],[2.4635124699952473,48.82124941684997],[2.463348508048668,48.82096713686366],[2.4632177803753184,48.820750321655666],[2.463068346164553,48.820492593528364],[2.462943781021091,48.82026757994374],[2.4629063935705298,48.820189842169945],[2.462800136110082,48.81984200252563],[2.4627126239890944,48.8195555453711],[2.462637680144664,48.819338667791875],[2.462525909233214,48.81926510497676],[2.462822944072517,48.81906010138011],[2.4627980772267617,48.819027377538056],[2.4625746471760968,48.81892528681197],[2.462251877741928,48.81875780167728],[2.4615298616787165,48.81841063687765],[2.461138839339003,48.81821866430773],[2.460853363425095,48.81808388622333],[2.4603981779516317,48.81784695355852],[2.460129278464174,48.817728532540414],[2.4599389344902436,48.81763049208471],[2.459750652067696,48.817528348693884],[2.4595644960892185,48.81745487134197],[2.4593783864177334,48.8173936604579],[2.4592605166658,48.81735695285629],[2.4591984617321203,48.81732835902178],[2.459247833254319,48.81723824383439],[2.4589747963006987,48.81712392414734],[2.4588072587394256,48.81705041740094],[2.458614980865391,48.81700558735316],[2.458230649559001,48.817001905688294],[2.4577161570044583,48.81700654532415],[2.4571810253281425,48.817019395668005],[2.456796733160615,48.817032085373896],[2.4564744263605567,48.817044699479844],[2.4561624859887843,48.81706959495274],[2.45515631463332,48.81711158027642],[2.454480716532912,48.81714093124804],[2.453592369505195,48.81720324874306],[2.453344457486927,48.817223969457544],[2.452991279753734,48.81728983427601],[2.4523573011869617,48.81744603599969],[2.4514011383867804,48.81767214527212],[2.4508187638476753,48.81781191917901],[2.449763182858174,48.81794395904546],[2.4493789189031134,48.81797299907007],[2.4481991373429643,48.818006911540174],[2.4475710299494002,48.81802799125616],[2.4470482220268934,48.81801621488553],[2.446223727503423,48.81799654229757],[2.4458889664303056,48.817984579360804],[2.445019015937722,48.817964942322774],[2.4446842416393624,48.817952984043686],[2.4440684634528265,48.81794537391258],[2.443659347308275,48.8179498503156],[2.4427150796614114,48.81795892387435],[2.44225636613837,48.81796344221328],[2.4418452722424657,48.81801294925298],[2.441145036117498,48.818128215133726],[2.4406596645383476,48.81822690485612],[2.4403684340347245,48.818284480847225],[2.4401019996091153,48.81834203283803],[2.439841684587405,48.81836273675881],[2.4395048694115813,48.81835893963398],[2.43909568101009,48.818330657475805],[2.4387092377578177,48.818310536384374],[2.4382628342666943,48.81826999986864],[2.437754477836005,48.818245884358404],[2.4373390808871074,48.81821760026031],[2.4373641102713353,48.818332200325926],[2.43737698652902,48.81856552356413],[2.4374022221886533,48.8187824598487],[2.4374336128821006,48.81897892471298],[2.4374586533211304,48.81910580837924],[2.437372011476079,48.81917137969873],[2.437303887970641,48.81920828242045],[2.437198644056421,48.81927387849106],[2.437035523522104,48.81933951677099],[2.4368620651608497,48.81939697939944],[2.436713393369042,48.81945032968744],[2.436484155067863,48.81950784106678],[2.4362548849742285,48.81955716036123],[2.436081365795941,48.819585971121086],[2.435633038359779,48.819623204428304],[2.4351867467489696,48.81964405908493],[2.4350007014699138,48.81961146822882],[2.434808399864485,48.819542038840154],[2.434582916810441,48.81941942695379],[2.4345084395930305,48.8193703637656],[2.4343224745109997,48.81937871621782],[2.434179707574816,48.81927649960783],[2.434230057994359,48.8196694404592],[2.4342676317879586,48.81985771683352],[2.4342803352115614,48.82001735367265],[2.434305398173206,48.820152422319744],[2.434142397030051,48.820275366159606],[2.4338761556522743,48.82044752578213],[2.43360994796814,48.82063196858973],[2.4333809295966358,48.820808187769394],[2.4332075330616543,48.82090248906343],[2.432972307308393,48.821082803429675],[2.4326854220582073,48.82126725307754],[2.4324811436112173,48.82142298231168],[2.4328970231445717,48.82169691115326],[2.432630838631117,48.82189771850552],[2.432177750493701,48.82161563647391],[2.43189917120151,48.82182464499855],[2.431657695331247,48.821980402901445],[2.4314533798373303,48.82211975436815],[2.431092220172166,48.82236976457287],[2.430813639583682,48.82258286260312],[2.4305783529202616,48.82273861263753],[2.4303802565421724,48.822886149117586],[2.4305231477136955,48.82304568025565],[2.430690871545794,48.823229758141856],[2.430300582321562,48.823377443242315],[2.429802850159025,48.82354160031779],[2.4293505446694295,48.82368114945987],[2.4284251550664946,48.82390704982684],[2.427978914329978,48.82398518584122],[2.4277124207833034,48.8240345174868],[2.427220715612378,48.824104504236054],[2.426966583212395,48.824137448433184],[2.426588485395686,48.82418278195214],[2.4258735522298736,48.82423655436667],[2.425489196614044,48.82424913796051],[2.42497259143866,48.82426591498659],[2.42430095405445,48.82426643388425],[2.423792563832675,48.82425453834361],[2.4233337267444104,48.82422214551004],[2.422879064671573,48.82421020567001],[2.422445051414148,48.82419006623188],[2.421955225272376,48.82416177245461],[2.4213021455353405,48.82413360951023],[2.4208433665271167,48.82412576471855],[2.4200353958493115,48.824155008741656],[2.4197564178480153,48.824163396509796],[2.419500244827023,48.824208619259934],[2.4189610277134523,48.8243072544389],[2.4183908853372724,48.82444275310521],[2.4177939196175107,48.82461102105719],[2.417347682633518,48.82469729905489],[2.4166452062947967,48.82480013054432],[2.4162732823374493,48.82484132629826],[2.415888919959276,48.82485387813034],[2.4153847099061148,48.82487878664271],[2.4147460947812895,48.82485466624901],[2.414371998637275,48.82482217077636],[2.4139131681984174,48.82479383128373],[2.4132291315570864,48.82479429201786],[2.412392216569288,48.82482350251912],[2.4116400956936985,48.82490587791172],[2.4111938267472532,48.824979847416046],[2.4106277498008017,48.82509483786538],[2.410262102454117,48.82518513716424],[2.409566034303512,48.82544756923519],[2.4088654941836447,48.82577822838484],[2.408191125720622,48.826150000816334],[2.4076131768780837,48.82652169840522],[2.4070138706447155,48.82694646518078],[2.406350011108046,48.827491599351525],[2.405392669880051,48.828252453244986],[2.4045577330406043,48.82875161036935],[2.4039474834993317,48.829049047831354],[2.403594921273717,48.82920890224151],[2.4031261979875658,48.829396981804585],[2.402787429030815,48.82951602635066],[2.402439790490669,48.829633286237886],[2.401477933068418,48.829372705085206],[2.4012939844197225,48.829498869660036],[2.4006580436873763,48.8299134339026],[2.399840387931067,48.830436152892645],[2.3993157050516363,48.830774111254925],[2.3995635384954266,48.83081449620889],[2.400034166981228,48.83088176986622],[2.4005184289337533,48.83094902635703],[2.4009163340695197,48.8310253411672],[2.401311958463085,48.83109715808099],[2.401653018374891,48.83116899660216],[2.402007750062939,48.83125883767888],[2.4022465129653336,48.831317234570086],[2.4026081306622973,48.83145208829788],[2.4029038465359243,48.83160499947346],[2.4030881152380936,48.83171744613383],[2.403313413644953,48.831901908914446],[2.4037229982571056,48.83220781779535],[2.4039619491692474,48.83240127262313],[2.4041664754310283,48.832360631255966],[2.40421063775132,48.83246281687351],[2.4044217457533263,48.83295524216318],[2.405221298000973,48.833182101613225],[2.4056104376743725,48.83329553490455],[2.406076323944405,48.833556266497006],[2.406627283914159,48.83385483094214],[2.4068953193245726,48.83399780398722],[2.4072016626627133,48.83417022169567],[2.4076569035900746,48.834414111056],[2.4078102177213325,48.83460345696135],[2.40799547801789,48.834822260225884],[2.408308061148989,48.8348936290353],[2.4085502776330205,48.834817703862754],[2.408875348738221,48.83470803796246],[2.4093555421497657,48.83455617917304],[2.40989733552132,48.834379017483286],[2.4103562594100567,48.83422716664112],[2.4107769605867437,48.83409638311115],[2.411038283024752,48.83400359668611],[2.4113187485939904,48.833923423056106],[2.411216621359591,48.833856133579154],[2.411344479132588,48.83383944025172]],[[2.4653712454390533,48.83162893066363],[2.4655336327343567,48.83179461912953],[2.4659256651936743,48.832171152200885],[2.4660492207324363,48.83229008586096],[2.466295794938088,48.83249792609372],[2.466427909538346,48.83260239711886],[2.4665755619393823,48.83268859662083],[2.466906722683616,48.83286776786813],[2.467225764186032,48.8330579786858],[2.467444076586105,48.8331660287761],[2.467777439162719,48.83333014213224],[2.4679610770122884,48.833413554565816],[2.4682355335663493,48.83354895780072],[2.468492006449027,48.83368848137876],[2.468544706290783,48.83372269246435],[2.4686383305071415,48.833795236177785],[2.4688110523693982,48.83393212234884],[2.468911022669272,48.834044416024234],[2.469036674968243,48.834184098482716],[2.4691637949429737,48.834352565897014],[2.4691330085424674,48.83449105467641],[2.4691935383256243,48.83460613638338],[2.4690567731387096,48.83471458563089],[2.4689282666216052,48.8348038448901],[2.4687769764475003,48.83491642931673],[2.468658856397414,48.83500840909604],[2.468511715136134,48.83511962209316],[2.4681959937053493,48.835353025103416],[2.4680578386893908,48.83545776161855],[2.467867695155455,48.835348312928076],[2.467215473590343,48.834944269468664],[2.466730423161847,48.83527245677355],[2.4666555808150763,48.83524101426145],[2.4664793302243244,48.835338542521704],[2.4663403948125264,48.8354168387437],[2.466263672350558,48.83545805037562],[2.466093021906968,48.83531567217233],[2.465786139006688,48.83549011936252],[2.465488825902563,48.835346517092184],[2.4652247518901764,48.83521247266282],[2.465095838184316,48.835146817723825],[2.4650621855371577,48.83498098372641],[2.465030487766064,48.83476991347794],[2.4649988585277565,48.834579401941305],[2.4649756468876074,48.83443685578018],[2.4649440235072904,48.83425457243756],[2.464914530737359,48.83409010141312],[2.4648695234328803,48.833814612311286],[2.4648398946683,48.833596688025494],[2.46481246239501,48.833428105226716],[2.4647871087677347,48.83325677605678],[2.464774337269149,48.83313204326656],[2.4647510605218037,48.8329634546945],[2.464725706852646,48.83279761063961],[2.464698310763991,48.832637255206286],[2.4646833685765843,48.832478254161],[2.464660035672601,48.83228773159863],[2.464653365981148,48.8321150153921],[2.464644696937175,48.831973829016285],[2.4646400594514817,48.83178602877057],[2.4646397989538946,48.83168458231149],[2.464737371403784,48.83167487781862],[2.4649719560283905,48.831658166839595],[2.4653712454390533,48.83162893066363]],[[2.461360431312336,48.825455567720525],[2.4607767702644368,48.825207572087685],[2.459949932488756,48.824863595924484],[2.459269036861314,48.824591633325106],[2.4588676547364825,48.82436749667718],[2.458231131036448,48.82402330444409],[2.458145890910203,48.82393516686951],[2.4581213162610878,48.823814888201234],[2.4580481911464642,48.82371872460889],[2.4578779473889565,48.82363869968365],[2.457586468926801,48.82365505232677],[2.4572824285168036,48.82349497024902],[2.4561959565673566,48.82291864366746],[2.455478505628616,48.8225745205107],[2.454173264890162,48.82191820480428],[2.453759685468434,48.821653954632765],[2.4533338918657166,48.82136565999281],[2.453017713475744,48.82119755799688],[2.45301748784727,48.82110130897706],[2.4534657583035724,48.820619629157505],[2.4542291898505666,48.81988097976521],[2.454459850472515,48.81983261275352],[2.4551199077764467,48.81989609251354],[2.4560795869449326,48.81996727608121],[2.4580353253723617,48.82009353871073],[2.4588249027244866,48.82014081616012],[2.4590801095922665,48.820196684162234],[2.4594569467992686,48.82033262750747],[2.4598218712478674,48.82055680167894],[2.4601665814022273,48.82078901733032],[2.4603975823411326,48.82088501642634],[2.4610910218576785,48.821333397638185],[2.4614560209618235,48.82158163044044],[2.461727877198433,48.8218219429775],[2.4618255098187296,48.82200630442558],[2.4618870615801063,48.822335075238286],[2.461961037427119,48.82276809462574],[2.462035301505231,48.823321410141276],[2.4621454909199096,48.823666170539674],[2.4622558485993653,48.82408310665995],[2.462268884898901,48.82443598726872],[2.462245307585045,48.82471672225572],[2.4623067847409725,48.82501340677319],[2.4624415259026833,48.8254624018413],[2.4625640105253215,48.82586328204073],[2.462588692082569,48.826015636807895],[2.4624550292048304,48.825999750446236],[2.4619928563999123,48.825767669922506],[2.461360431312336,48.825455567720525]],[[2.4393316914205454,48.84021132191933],[2.439203349955865,48.8402210952998],[2.4391155610548956,48.840229024345845],[2.4390192306707785,48.84023695284363],[2.4389442305693083,48.840243062980925],[2.4388701567181204,48.84024856135667],[2.4388692292279965,48.84024131358617],[2.4387786839510603,48.84024683536764],[2.4387832985716713,48.84026494308299],[2.4386808656413543,48.840273487516995],[2.438678090756897,48.84025598110666],[2.437262781364077,48.84038670557943],[2.437212908150484,48.84034144375327],[2.437185268213225,48.840288609600606],[2.4371601121664077,48.84021760572526],[2.4371475250662784,48.840184586865796],[2.4371099134264598,48.84014498027819],[2.437067263407701,48.84008720363912],[2.4370045834454457,48.84002779841037],[2.4374818080426204,48.83967721753955],[2.438314478194023,48.83906096924472],[2.4383896426342835,48.839043376375],[2.4384854130932503,48.83898187820527],[2.4398869597403317,48.837961506150805],[2.4399726298679894,48.837912903921406],[2.4401320952642434,48.83800172458609],[2.4404261179407336,48.837979893342975],[2.440491861535371,48.83816855620972],[2.440614595491772,48.83826820084189],[2.440720900036881,48.83832202446614],[2.4408856252541193,48.83831917641076],[2.4410488935822117,48.838270502617306],[2.4411875618849956,48.83817870366978],[2.441285125094366,48.837954837845544],[2.4412930928937846,48.83786316747497],[2.4413380221830736,48.837863125500924],[2.4413623818889176,48.8377930047605],[2.4414517871810806,48.837577240726525],[2.4415249166951623,48.837396535853415],[2.441565498398947,48.83727247887978],[2.441520444930251,48.837213204931494],[2.441434423669775,48.83708656653069],[2.4412708864978643,48.837011231486876],[2.4412912559030313,48.83698694949949],[2.441434021236927,48.83689514683148],[2.4415971467815947,48.836781759980155],[2.441625607870561,48.83672511538411],[2.441686762121651,48.83667383606927],[2.441613129660682,48.83661459690381],[2.4419694606015487,48.83644711185658],[2.441936699742025,48.83640939006383],[2.4419856457416396,48.83637699773863],[2.4422683805895566,48.836169138813716],[2.44305673671237,48.83558875068296],[2.443517468736501,48.83522974344535],[2.4437213315822417,48.83507317682728],[2.444016233612119,48.83483564360915],[2.4442608516234667,48.83464129534933],[2.44433424872348,48.834584607874206],[2.4443994698775313,48.83453332350781],[2.4446989246844266,48.83451416463808],[2.4450051719824746,48.83449231057406],[2.4451372183322584,48.83448948674599],[2.4452228725153855,48.83443818249789],[2.4455371922964435,48.83437048181558],[2.445688182916838,48.834316417764775],[2.44572498229193,48.834337947225926],[2.4457861877383564,48.83431362612082],[2.4460885251313114,48.834367257022436],[2.4460641841569832,48.8344427751553],[2.4458721705540993,48.83441330045785],[2.445942188122166,48.834680138707526],[2.44584826144784,48.83468562497384],[2.4459470522160562,48.83504140920243],[2.446074686873134,48.835510403355244],[2.4461049135883988,48.83563439419722],[2.4461988282266853,48.83562891666412],[2.446240131929548,48.835833777913074],[2.446456485223759,48.8357904319182],[2.44678043540245,48.83576315923911],[2.447594317797074,48.835668010069426],[2.447823151902041,48.835724406080594],[2.448068306475384,48.83577538906525],[2.4481256609114137,48.835856213843556],[2.448207545695688,48.83594779747122],[2.448318038460273,48.836044748155025],[2.4483881603865343,48.83635203457667],[2.4485007477578073,48.836775204799956],[2.4485500800694098,48.836923446910944],[2.4486970860475963,48.836912512027396],[2.4491912145586157,48.83688237644174],[2.4492848433172507,48.836750171022516],[2.449391070110186,48.83676624503918],[2.4497778696163053,48.83681794742481],[2.4501560665397637,48.836865882067734],[2.4501765258323966,48.83692489849136],[2.4501038966422466,48.837090662651136],[2.450074603178453,48.83716597875603],[2.4501002400716128,48.837171879491535],[2.450084939242225,48.83720657924373],[2.4500478006455264,48.83721761450449],[2.450034441096273,48.837261621640046],[2.4499484451151843,48.83748631040667],[2.4498394558336245,48.83774148857647],[2.449763032726578,48.83794713857561],[2.4496712766808946,48.83817945045555],[2.4496024507299965,48.83834702675528],[2.4495144959861523,48.83855649246735],[2.4493416713474176,48.838640412867235],[2.449088214822341,48.838770104109],[2.4488750769040406,48.838884522421125],[2.448708016856214,48.83896463179246],[2.4485332798079713,48.83905997301978],[2.4483201605301135,48.839178194690284],[2.448158851844204,48.839254493150044],[2.4480147640885956,48.839300317905305],[2.4478418399581225,48.83934236519022],[2.4476343273186396,48.83939205443343],[2.4474210537084757,48.83944174818171],[2.447248153274586,48.83949521744708],[2.447109856956131,48.839548650346885],[2.44698300678748,48.83956019360311],[2.4468330947386616,48.83957936724779],[2.44674082298855,48.83957945585095],[2.4465920150564413,48.83960562500024],[2.4465864788474794,48.83958449688173],[2.446447779165606,48.83959731040201],[2.4462618367746596,48.83961257886837],[2.446066746698091,48.83963027521907],[2.4458780513484903,48.83964495205493],[2.4457341602479925,48.83965776947982],[2.4455454652032764,48.83967303936847],[2.445385135326548,48.839687680518914],[2.445219300812165,48.839702334597895],[2.445044322232135,48.83971638482731],[2.4448538044458092,48.83973287009379],[2.4446751798394812,48.83974933382449],[2.444489226172261,48.8397658136176],[2.444328880348242,48.83977984981143],[2.444238356099267,48.83978838866407],[2.4441529882984554,48.83979390888489],[2.4441054368743584,48.83979756864311],[2.444088029704504,48.83978672244876],[2.4439359236832314,48.83980014797218],[2.4438258792815777,48.83980930626373],[2.4437774399504053,48.839831689968705],[2.4435924087199536,48.83984696212418],[2.4434192541908453,48.83985980433176],[2.443244274587493,48.839873852825555],[2.4431086320882542,48.83988423945037],[2.44305741876848,48.83988911656156],[2.4430043800706724,48.83989459761338],[2.4429394446625006,48.83989888465575],[2.44290255647307,48.8399013380906],[2.442852244573203,48.83990078180108],[2.4427440200297723,48.83990751931123],[2.442700158606965,48.83992386493997],[2.4425699947413246,48.839934857463],[2.442394103518687,48.83994950753225],[2.442211810448983,48.83996537759804],[2.44203774821558,48.83998123091742],[2.4418728247034607,48.83999587921512],[2.441693278128176,48.840009327646506],[2.441501834905517,48.84002640043377],[2.441316804033021,48.840042271643824],[2.4411482270038607,48.84005631100285],[2.4409540412741704,48.8400721901458],[2.440786376929342,48.84008622786462],[2.440624202011528,48.84010026044013],[2.440413562407704,48.84011856287582],[2.440232182035334,48.84013382713178],[2.440050801905274,48.84014969278383],[2.4398794872559586,48.84016433540019],[2.4396907919698796,48.840180809294495],[2.4395176360360415,48.840194850991935],[2.4393316914205454,48.84021132191933]]]],"type":"MultiPolygon"},"properties":{"nsq_espace_vert":10132,"nom_ev":"BOIS DE VINCENNES","type_ev":"Bois","categorie":"Bois","adresse_numero":2,"adresse_complement":null,"adresse_typevoie":"CARREFOUR DE LA","adresse_libellevoie":"PYRAMIDE","adresse_codepostal":"75012","poly_area":9284926,"surface_totale_reelle":null,"surface_horticole":null,"presence_cloture":"Non","perimeter":21983.98018545,"annee_ouverture":null,"annee_renovation":null,"ancien_nom_ev":null,"annee_changement_nom":null,"nb_entites":1,"ouvert_ferme":null,"id_division":7,"id_atelier_horticole":null,"ida3d_enb":"51679","site_villes":"3705","id_eqpt":"6940","competence":"CP","url_plan":"https:\/\/b22-pr-v1-iis01.ressources.paris.mdp\/MAAP.asp?object=51679","geom_x_y":{"lon":2.440063524738138,"lat":48.83134480738301},"last_edited_user":null,"last_edited_date":null}}]}